start=new Date('2023-05-11T00:00:00.000Z').valueOf();
sats=[{"SITE":"AFETR","DECAY_DATE":null,"MEAN_ANOMALY":"275.6378","MEAN_ELEMENT_THEORY":"SGP4","REV_AT_EPOCH":"5618","TLE_LINE2":"2 52482  53.2171  14.1602 0001162  84.4747 275.6378 15.08839061 56189","MEAN_MOTION":"15.08839061","PERIOD":"95.438","BSTAR":"0.00010408000000","INCLINATION":"53.2171","PERIAPSIS":"538.944","SEMIMAJOR_AXIS":"6917.883","ECCENTRICITY":"0.00011620","OBJECT_NAME":"STARLINK-3813","ARG_OF_PERICENTER":"84.4747","ELEMENT_SET_NO":"999","EPOCH":"2023-05-09T23:17:09.701088","LAUNCH_DATE":"2022-05-06","EPHEMERIS_TYPE":"0","FILE":"3904555","COUNTRY_CODE":"US","OBJECT_TYPE":"PAYLOAD","CENTER_NAME":"EARTH","TLE_LINE1":"1 52482U 22049AH  23129.97025117  .00001369  00000-0  10408-3 0  9992","APOAPSIS":"540.552","RCS_SIZE":"LARGE","OBJECT_ID":"2022-049AH","REF_FRAME":"TEME","GP_ID":"231535165","MEAN_MOTION_DDOT":"0.0000000000000","TIME_SYSTEM":"UTC","NORAD_CAT_ID":"52482","MEAN_MOTION_DOT":"0.00001369","RA_OF_ASC_NODE":"14.1602","CLASSIFICATION_TYPE":"U"},{"EPOCH":"2023-05-10T02:43:49.410912","ELEMENT_SET_NO":"999","EPHEMERIS_TYPE":"0","LAUNCH_DATE":"2022-05-06","PERIAPSIS":"539.177","ARG_OF_PERICENTER":"85.4663","OBJECT_NAME":"STARLINK-3875","SEMIMAJOR_AXIS":"6917.842","ECCENTRICITY":"0.00007660","MEAN_MOTION":"15.08852445","PERIOD":"95.437","REV_AT_EPOCH":"5636","TLE_LINE2":"2 52483  53.2168  13.5142 0000766  85.4663 274.6417 15.08852445 56369","INCLINATION":"53.2168","BSTAR":"0.00031960000000","DECAY_DATE":null,"MEAN_ANOMALY":"274.6417","MEAN_ELEMENT_THEORY":"SGP4","SITE":"AFETR","NORAD_CAT_ID":"52483","MEAN_MOTION_DOT":"0.00004804","TIME_SYSTEM":"UTC","RA_OF_ASC_NODE":"13.5142","CLASSIFICATION_TYPE":"U","RCS_SIZE":"LARGE","GP_ID":"231543463","MEAN_MOTION_DDOT":"0.0000000000000","OBJECT_ID":"2022-049AJ","REF_FRAME":"TEME","FILE":"3904798","TLE_LINE1":"1 52483U 22049AJ  23130.11376633  .00004804  00000-0  31960-3 0  9996","APOAPSIS":"540.237","COUNTRY_CODE":"US","OBJECT_TYPE":"PAYLOAD","CENTER_NAME":"EARTH"},{"ARG_OF_PERICENTER":"81.7934","OBJECT_NAME":"STARLINK-3887","SEMIMAJOR_AXIS":"6917.873","ECCENTRICITY":"0.00011520","PERIAPSIS":"538.941","EPHEMERIS_TYPE":"0","LAUNCH_DATE":"2022-05-06","EPOCH":"2023-05-10T19:34:39.153216","ELEMENT_SET_NO":"999","MEAN_ELEMENT_THEORY":"SGP4","MEAN_ANOMALY":"278.3189","DECAY_DATE":null,"SITE":"AFETR","INCLINATION":"53.2172","BSTAR":"0.00011963000000","PERIOD":"95.437","MEAN_MOTION":"15.08842567","TLE_LINE2":"2 52484  53.2172  20.3597 0001152  81.7934 278.3189 15.08842567 56175","REV_AT_EPOCH":"5617","MEAN_MOTION_DDOT":"0.0000000000000","GP_ID":"231567546","REF_FRAME":"TEME","OBJECT_ID":"2022-049AK","RCS_SIZE":"LARGE","CLASSIFICATION_TYPE":"U","RA_OF_ASC_NODE":"20.3597","MEAN_MOTION_DOT":"0.00001617","NORAD_CAT_ID":"52484","TIME_SYSTEM":"UTC","APOAPSIS":"540.534","TLE_LINE1":"1 52484U 22049AK  23130.81573094  .00001617  00000-0  11963-3 0  9994","OBJECT_TYPE":"PAYLOAD","CENTER_NAME":"EARTH","COUNTRY_CODE":"US","FILE":"3904830"},{"FILE":"3904555","OBJECT_TYPE":"PAYLOAD","CENTER_NAME":"EARTH","COUNTRY_CODE":"US","APOAPSIS":"540.273","TLE_LINE1":"1 52485U 22049AL  23129.97392221  .00006670  00000-0  43657-3 0  9990","TIME_SYSTEM":"UTC","MEAN_MOTION_DOT":"0.00006670","NORAD_CAT_ID":"52485","CLASSIFICATION_TYPE":"U","RA_OF_ASC_NODE":"14.1422","RCS_SIZE":"LARGE","REF_FRAME":"TEME","OBJECT_ID":"2022-049AL","MEAN_MOTION_DDOT":"0.0000000000000","GP_ID":"231534417","TLE_LINE2":"2 52485  53.2172  14.1422 0000833 121.2274 238.8800 15.08856019 56185","REV_AT_EPOCH":"5618","PERIOD":"95.437","MEAN_MOTION":"15.08856019","BSTAR":"0.00043657000000","INCLINATION":"53.2172","SITE":"AFETR","MEAN_ELEMENT_THEORY":"SGP4","DECAY_DATE":null,"MEAN_ANOMALY":"238.8800","ELEMENT_SET_NO":"999","EPOCH":"2023-05-09T23:22:26.878944","LAUNCH_DATE":"2022-05-06","EPHEMERIS_TYPE":"0","PERIAPSIS":"539.120","OBJECT_NAME":"STARLINK-3913","SEMIMAJOR_AXIS":"6917.831","ECCENTRICITY":"0.00008330","ARG_OF_PERICENTER":"121.2274"},{"BSTAR":"0.00005894000000","INCLINATION":"53.2169","REV_AT_EPOCH":"5617","TLE_LINE2":"2 52486  53.2169  20.3929 0001344  80.8169 279.2975 15.08840842 56172","MEAN_MOTION":"15.08840842","PERIOD":"95.438","SITE":"AFETR","MEAN_ANOMALY":"279.2975","DECAY_DATE":null,"MEAN_ELEMENT_THEORY":"SGP4","LAUNCH_DATE":"2022-05-06","EPHEMERIS_TYPE":"0","ELEMENT_SET_NO":"999","EPOCH":"2023-05-10T19:24:03.287232","SEMIMAJOR_AXIS":"6917.878","ECCENTRICITY":"0.00013440","OBJECT_NAME":"STARLINK-3918","ARG_OF_PERICENTER":"80.8169","PERIAPSIS":"538.813","COUNTRY_CODE":"US","OBJECT_TYPE":"PAYLOAD","CENTER_NAME":"EARTH","TLE_LINE1":"1 52486U 22049AM  23130.80837138  .00000650  00000-0  58940-4 0  9990","APOAPSIS":"540.673","FILE":"3904830","RA_OF_ASC_NODE":"20.3929","CLASSIFICATION_TYPE":"U","TIME_SYSTEM":"UTC","NORAD_CAT_ID":"52486","MEAN_MOTION_DOT":"0.00000650","OBJECT_ID":"2022-049AM","REF_FRAME":"TEME","GP_ID":"231568549","MEAN_MOTION_DDOT":"0.0000000000000","RCS_SIZE":"LARGE"},{"MEAN_ELEMENT_THEORY":"SGP4","MEAN_ANOMALY":"285.3454","DECAY_DATE":null,"SITE":"AFETR","PERIOD":"95.438","MEAN_MOTION":"15.08838965","TLE_LINE2":"2 52487  53.2165  10.6320 0001173  74.7668 285.3454 15.08838965 56467","REV_AT_EPOCH":"5646","INCLINATION":"53.2165","BSTAR":"0.00004850000000","PERIAPSIS":"538.937","ARG_OF_PERICENTER":"74.7668","ECCENTRICITY":"0.00011730","SEMIMAJOR_AXIS":"6917.884","OBJECT_NAME":"STARLINK-3902","EPOCH":"2023-05-10T18:43:00.214176","ELEMENT_SET_NO":"999","EPHEMERIS_TYPE":"0","LAUNCH_DATE":"2022-05-06","FILE":"3904814","APOAPSIS":"540.560","TLE_LINE1":"1 52487U 22049AN  23130.77986359  .00000484  00000-0  48500-4 0  9993","CENTER_NAME":"EARTH","OBJECT_TYPE":"PAYLOAD","COUNTRY_CODE":"US","RCS_SIZE":"LARGE","MEAN_MOTION_DDOT":"0.0000000000000","GP_ID":"231543947","REF_FRAME":"TEME","OBJECT_ID":"2022-049AN","MEAN_MOTION_DOT":"0.00000484","NORAD_CAT_ID":"52487","TIME_SYSTEM":"UTC","CLASSIFICATION_TYPE":"U","RA_OF_ASC_NODE":"10.6320"},{"MEAN_ANOMALY":"276.8887","DECAY_DATE":null,"MEAN_ELEMENT_THEORY":"SGP4","SITE":"AFETR","MEAN_MOTION":"15.08850515","PERIOD":"95.437","REV_AT_EPOCH":"5607","TLE_LINE2":"2 52488  53.2173  23.3827 0000722  83.2187 276.8887 15.08850515 56077","INCLINATION":"53.2173","BSTAR":"0.00053877000000","PERIAPSIS":"539.214","ARG_OF_PERICENTER":"83.2187","SEMIMAJOR_AXIS":"6917.848","OBJECT_NAME":"STARLINK-3892","ECCENTRICITY":"0.00007220","EPOCH":"2023-05-10T03:24:53.511264","ELEMENT_SET_NO":"999","EPHEMERIS_TYPE":"0","LAUNCH_DATE":"2022-05-06","FILE":"3904555","TLE_LINE1":"1 52488U 22049AP  23130.14228601  .00008300  00000-0  53877-3 0  9991","APOAPSIS":"540.213","COUNTRY_CODE":"US","CENTER_NAME":"EARTH","OBJECT_TYPE":"PAYLOAD","RCS_SIZE":"LARGE","GP_ID":"231534671","MEAN_MOTION_DDOT":"0.0000000000000","OBJECT_ID":"2022-049AP","REF_FRAME":"TEME","NORAD_CAT_ID":"52488","MEAN_MOTION_DOT":"0.00008300","TIME_SYSTEM":"UTC","RA_OF_ASC_NODE":"23.3827","CLASSIFICATION_TYPE":"U"},{"NORAD_CAT_ID":"52489","MEAN_MOTION_DOT":"0.00002043","TIME_SYSTEM":"UTC","RA_OF_ASC_NODE":"23.9453","CLASSIFICATION_TYPE":"U","RCS_SIZE":"LARGE","GP_ID":"231534919","MEAN_MOTION_DDOT":"0.0000000000000","OBJECT_ID":"2022-049AQ","REF_FRAME":"TEME","FILE":"3904555","TLE_LINE1":"1 52489U 22049AQ  23130.01716527  .00002043  00000-0  14637-3 0  9996","APOAPSIS":"540.575","COUNTRY_CODE":"US","OBJECT_TYPE":"PAYLOAD","CENTER_NAME":"EARTH","EPOCH":"2023-05-10T00:24:43.079328","ELEMENT_SET_NO":"999","EPHEMERIS_TYPE":"0","LAUNCH_DATE":"2022-05-06","PERIAPSIS":"538.880","ARG_OF_PERICENTER":"104.1302","SEMIMAJOR_AXIS":"6917.862","ECCENTRICITY":"0.00012250","OBJECT_NAME":"STARLINK-3923","MEAN_MOTION":"15.08845864","PERIOD":"95.437","REV_AT_EPOCH":"5605","TLE_LINE2":"2 52489  53.2172  23.9453 0001225 104.1302 255.9826 15.08845864 56059","INCLINATION":"53.2172","BSTAR":"0.00014637000000","DECAY_DATE":null,"MEAN_ANOMALY":"255.9826","MEAN_ELEMENT_THEORY":"SGP4","SITE":"AFETR"},{"RA_OF_ASC_NODE":"10.3390","CLASSIFICATION_TYPE":"U","NORAD_CAT_ID":"52490","MEAN_MOTION_DOT":"0.00016717","TIME_SYSTEM":"UTC","GP_ID":"231568049","MEAN_MOTION_DDOT":"0.0000000000000","OBJECT_ID":"2022-049AR","REF_FRAME":"TEME","RCS_SIZE":"LARGE","TLE_LINE1":"1 52490U 22049AR  23130.82032746  .00016717  00000-0  10653-2 0  9997","APOAPSIS":"540.578","COUNTRY_CODE":"US","OBJECT_TYPE":"PAYLOAD","CENTER_NAME":"EARTH","FILE":"3904830","EPHEMERIS_TYPE":"0","LAUNCH_DATE":"2022-05-06","EPOCH":"2023-05-10T19:41:16.292544","ELEMENT_SET_NO":"999","ARG_OF_PERICENTER":"114.5728","SEMIMAJOR_AXIS":"6917.816","ECCENTRICITY":"0.00012970","OBJECT_NAME":"STARLINK-3914","PERIAPSIS":"538.783","INCLINATION":"53.2180","BSTAR":"0.00106530000000","MEAN_MOTION":"15.08861186","PERIOD":"95.436","REV_AT_EPOCH":"5631","TLE_LINE2":"2 52490  53.2180  10.3390 0001297 114.5728 245.5399 15.08861186 56310","MEAN_ANOMALY":"245.5399","DECAY_DATE":null,"MEAN_ELEMENT_THEORY":"SGP4","SITE":"AFETR"},{"FILE":"3904555","TLE_LINE1":"1 52491U 22049AS  23130.03280895  .00001951  00000-0  14064-3 0  9996","APOAPSIS":"540.691","COUNTRY_CODE":"US","CENTER_NAME":"EARTH","OBJECT_TYPE":"PAYLOAD","NORAD_CAT_ID":"52491","MEAN_MOTION_DOT":"0.00001951","TIME_SYSTEM":"UTC","RA_OF_ASC_NODE":"13.8765","CLASSIFICATION_TYPE":"U","RCS_SIZE":"LARGE","GP_ID":"231535405","MEAN_MOTION_DDOT":"0.0000000000000","OBJECT_ID":"2022-049AS","REF_FRAME":"TEME","MEAN_MOTION":"15.08842833","PERIOD":"95.437","REV_AT_EPOCH":"5619","TLE_LINE2":"2 52491  53.2176  13.8765 0001379 106.7388 253.3756 15.08842833 56194","INCLINATION":"53.2176","BSTAR":"0.00014064000000","MEAN_ANOMALY":"253.3756","DECAY_DATE":null,"MEAN_ELEMENT_THEORY":"SGP4","SITE":"AFETR","EPOCH":"2023-05-10T00:47:14.693280","ELEMENT_SET_NO":"999","EPHEMERIS_TYPE":"0","LAUNCH_DATE":"2022-05-06","PERIAPSIS":"538.783","ARG_OF_PERICENTER":"106.7388","SEMIMAJOR_AXIS":"6917.872","ECCENTRICITY":"0.00013790","OBJECT_NAME":"STARLINK-3908"}];
